{
  "type": "FeatureCollection",
  "features": [
    {
      "type": "Feature",
      "properties": {
        "norad_id": 36559,
        "name": "COSMOS 2251 DEB",
        "group": "cosmos-2251-debris",
        "lat": 59.85465546257024,
        "lon": 45.84994280451469,
        "alt_km": 719.9254050860518,
        "timestamp": "2025-12-08T19:31:49.204394+00:00",
        "meta_object_name": "COSMOS 2251 DEB",
        "meta_object_id": "1993-036BDV",
        "meta_epoch": "2025-12-08T03:45:01.813536",
        "meta_mean_motion": 13.95135838,
        "meta_eccentricity": 0.02600272,
        "meta_inclination": 74.1301,
        "meta_ra_of_asc_node": 17.6431,
        "meta_arg_of_pericenter": 51.8718,
        "meta_mean_anomaly": 310.5544,
        "meta_ephemeris_type": 0,
        "meta_classification_type": "U",
        "meta_norad_cat_id": 36559,
        "meta_element_set_no": 999,
        "meta_rev_at_epoch": 81030,
        "meta_bstar": 0.0033662346,
        "meta_mean_motion_dot": 6.006e-05,
        "meta_mean_motion_ddot": 0,
        "tle_line1": "1 36559U 93036BDV 25342.15627099  .00006006  00000+0  33662-2 0  9997",
        "tle_line2": "2 36559  74.1301  17.6431 0260027  51.8718 310.5544 13.95135838810305"
      },
      "geometry": {
        "type": "Point",
        "coordinates": [
          45.84994280451469,
          59.85465546257024
        ]
      }
    },
    {
      "type": "Feature",
      "properties": {
        "norad_id": 36614,
        "name": "COSMOS 2251 DEB",
        "group": "cosmos-2251-debris",
        "lat": 45.402232735014444,
        "lon": -161.02132474773103,
        "alt_km": 698.8414339691344,
        "timestamp": "2025-12-08T19:31:49.204403+00:00",
        "meta_object_name": "COSMOS 2251 DEB",
        "meta_object_id": "1993-036BEC",
        "meta_epoch": "2025-12-07T20:17:29.491872",
        "meta_mean_motion": 14.60174339,
        "meta_eccentricity": 0.00163717,
        "meta_inclination": 74.0208,
        "meta_ra_of_asc_node": 183.9343,
        "meta_arg_of_pericenter": 254.1253,
        "meta_mean_anomaly": 105.8109,
        "meta_ephemeris_type": 0,
        "meta_classification_type": "U",
        "meta_norad_cat_id": 36614,
        "meta_element_set_no": 999,
        "meta_rev_at_epoch": 65541,
        "meta_bstar": 0.0021436205,
        "meta_mean_motion_dot": 0.00010332,
        "meta_mean_motion_ddot": 0,
        "tle_line1": "1 36614U 93036BEC 25341.84548023  .00010332  00000+0  21436-2 0  9996",
        "tle_line2": "2 36614  74.0208 183.9343 0016371 254.1253 105.8109 14.60174339655417"
      },
      "geometry": {
        "type": "Point",
        "coordinates": [
          -161.02132474773103,
          45.402232735014444
        ]
      }
    },
    {
      "type": "Feature",
      "properties": {
        "norad_id": 36622,
        "name": "COSMOS 2251 DEB",
        "group": "cosmos-2251-debris",
        "lat": -62.04814478242481,
        "lon": 5.877812032061398,
        "alt_km": 612.663904664013,
        "timestamp": "2025-12-08T19:31:49.204412+00:00",
        "meta_object_name": "COSMOS 2251 DEB",
        "meta_object_id": "1993-036BEL",
        "meta_epoch": "2025-12-07T18:00:44.362080",
        "meta_mean_motion": 14.76130008,
        "meta_eccentricity": 0.00687085,
        "meta_inclination": 74.0127,
        "meta_ra_of_asc_node": 155.2579,
        "meta_arg_of_pericenter": 291.6324,
        "meta_mean_anomaly": 67.7541,
        "meta_ephemeris_type": 0,
        "meta_classification_type": "U",
        "meta_norad_cat_id": 36622,
        "meta_element_set_no": 999,
        "meta_rev_at_epoch": 66676,
        "meta_bstar": 0.0010654006,
        "meta_mean_motion_dot": 7.621e-05,
        "meta_mean_motion_ddot": 0,
        "tle_line1": "1 36622U 93036BEL 25341.75051345  .00007621  00000+0  10654-2 0  9998",
        "tle_line2": "2 36622  74.0127 155.2579 0068708 291.6324  67.7541 14.76130008666763"
      },
      "geometry": {
        "type": "Point",
        "coordinates": [
          5.877812032061398,
          -62.04814478242481
        ]
      }
    },
    {
      "type": "Feature",
      "properties": {
        "norad_id": 36632,
        "name": "COSMOS 2251 DEB",
        "group": "cosmos-2251-debris",
        "lat": 23.222351001115484,
        "lon": 112.60655605780927,
        "alt_km": 753.9815262984366,
        "timestamp": "2025-12-08T19:31:49.204421+00:00",
        "meta_object_name": "COSMOS 2251 DEB",
        "meta_object_id": "1993-036BEW",
        "meta_epoch": "2025-12-08T03:50:26.997216",
        "meta_mean_motion": 14.43133085,
        "meta_eccentricity": 0.00317609,
        "meta_inclination": 74.0032,
        "meta_ra_of_asc_node": 300.8928,
        "meta_arg_of_pericenter": 49.809,
        "meta_mean_anomaly": 310.5839,
        "meta_ephemeris_type": 0,
        "meta_classification_type": "U",
        "meta_norad_cat_id": 36632,
        "meta_element_set_no": 999,
        "meta_rev_at_epoch": 65149,
        "meta_bstar": 0.0011897932,
        "meta_mean_motion_dot": 3.995e-05,
        "meta_mean_motion_ddot": 0,
        "tle_line1": "1 36632U 93036BEW 25342.16003469  .00003995  00000+0  11898-2 0  9990",
        "tle_line2": "2 36632  74.0032 300.8928 0031760  49.8090 310.5839 14.43133085651491"
      },
      "geometry": {
        "type": "Point",
        "coordinates": [
          112.60655605780927,
          23.222351001115484
        ]
      }
    },
    {
      "type": "Feature",
      "properties": {
        "norad_id": 37084,
        "name": "COSMOS 2251 DEB",
        "group": "cosmos-2251-debris",
        "lat": 57.388066736654416,
        "lon": -163.95603661387128,
        "alt_km": 625.3187484433365,
        "timestamp": "2025-12-08T19:31:49.204430+00:00",
        "meta_object_name": "COSMOS 2251 DEB",
        "meta_object_id": "1993-036BFE",
        "meta_epoch": "2025-12-06T06:27:50.366016",
        "meta_mean_motion": 15.00839572,
        "meta_eccentricity": 0.00980116,
        "meta_inclination": 74.0252,
        "meta_ra_of_asc_node": 174.6261,
        "meta_arg_of_pericenter": 256.595,
        "meta_mean_anomaly": 102.4298,
        "meta_ephemeris_type": 0,
        "meta_classification_type": "U",
        "meta_norad_cat_id": 37084,
        "meta_element_set_no": 999,
        "meta_rev_at_epoch": 66170,
        "meta_bstar": 0.00083053394,
        "meta_mean_motion_dot": 0.00011674,
        "meta_mean_motion_ddot": 0,
        "tle_line1": "1 37084U 93036BFE 25340.26933294  .00011674  00000+0  83053-3 0  9995",
        "tle_line2": "2 37084  74.0252 174.6261 0098011 256.5950 102.4298 15.00839572661708"
      },
      "geometry": {
        "type": "Point",
        "coordinates": [
          -163.95603661387128,
          57.388066736654416
        ]
      }
    },
    {
      "type": "Feature",
      "properties": {
        "norad_id": 37085,
        "name": "COSMOS 2251 DEB",
        "group": "cosmos-2251-debris",
        "lat": -71.63999390408362,
        "lon": 104.75818097537685,
        "alt_km": 466.57649976261564,
        "timestamp": "2025-12-08T19:31:49.204439+00:00",
        "meta_object_name": "COSMOS 2251 DEB",
        "meta_object_id": "1993-036BFF",
        "meta_epoch": "2025-12-02T23:36:37.668384",
        "meta_mean_motion": 15.39020756,
        "meta_eccentricity": 0.0022856,
        "meta_inclination": 73.9503,
        "meta_ra_of_asc_node": 237.2473,
        "meta_arg_of_pericenter": 76.375,
        "meta_mean_anomaly": 284,
        "meta_ephemeris_type": 0,
        "meta_classification_type": "U",
        "meta_norad_cat_id": 37085,
        "meta_element_set_no": 999,
        "meta_rev_at_epoch": 66987,
        "meta_bstar": 0.0028642077,
        "meta_mean_motion_dot": 0.00113322,
        "meta_mean_motion_ddot": 0,
        "tle_line1": "1 37085U 93036BFF 25336.98376931  .00113322  00000+0  28642-2 0  9994",
        "tle_line2": "2 37085  73.9503 237.2473 0022856  76.3750 284.0000 15.39020756669879"
      },
      "geometry": {
        "type": "Point",
        "coordinates": [
          104.75818097537685,
          -71.63999390408362
        ]
      }
    },
    {
      "type": "Feature",
      "properties": {
        "norad_id": 37089,
        "name": "COSMOS 2251 DEB",
        "group": "cosmos-2251-debris",
        "lat": -26.735452581648254,
        "lon": -18.55543005721483,
        "alt_km": 654.8693341256585,
        "timestamp": "2025-12-08T19:31:49.204448+00:00",
        "meta_object_name": "COSMOS 2251 DEB",
        "meta_object_id": "1993-036BFK",
        "meta_epoch": "2025-12-08T05:20:37.786848",
        "meta_mean_motion": 14.52807892,
        "meta_eccentricity": 0.01353256,
        "meta_inclination": 74.0364,
        "meta_ra_of_asc_node": 154.2692,
        "meta_arg_of_pericenter": 255.408,
        "meta_mean_anomaly": 103.2044,
        "meta_ephemeris_type": 0,
        "meta_classification_type": "U",
        "meta_norad_cat_id": 37089,
        "meta_element_set_no": 999,
        "meta_rev_at_epoch": 66044,
        "meta_bstar": 0.0030256992,
        "meta_mean_motion_dot": 0.00014025,
        "meta_mean_motion_ddot": 0,
        "tle_line1": "1 37089U 93036BFK 25342.22265957  .00014025  00000+0  30257-2 0  9992",
        "tle_line2": "2 37089  74.0364 154.2692 0135325 255.4080 103.2044 14.52807892660445"
      },
      "geometry": {
        "type": "Point",
        "coordinates": [
          -18.55543005721483,
          -26.735452581648254
        ]
      }
    }
  ]
}